*******************************************************************************
Ephemeris / WWW_USER Thu Dec  5 18:38:20 2024 Pasadena, USA      / Horizons    
*******************************************************************************
Target body name: 62412 (2000 SY178)              {source: JPL#44}
Center body name: Earth (399)                     {source: DE441}
Center-site name: Mauna Kea
*******************************************************************************
Start time      : A.D. 2019-Jan-05 04:06:00.0000 UT      
Stop  time      : A.D. 2019-Jan-05 16:47:00.0000 UT      
Step-size       : 1 minutes
*******************************************************************************
Target pole/equ : undefined
Target radii    : 5.187 km                                                     
Center geodetic : 204.5278, 19.8260847, 4.21024   {E-lon(deg),Lat(deg),Alt(km)}
Center cylindric: 204.5278, 6006.35451, 2151.0229 {E-lon(deg),Dxy(km),Dz(km)}
Center pole/equ : ITRF93                          {East-longitude positive}
Center radii    : 6378.137, 6378.137, 6356.752 km {Equator_a, b, pole_c}       
Target primary  : Sun
Vis. interferer : MOON (R_eq= 1737.400) km        {source: DE441}
Rel. light bend : Sun                             {source: DE441}
Rel. lght bnd GM: 1.3271E+11 km^3/s^2                                          
Small-body perts: Yes                             {source: SB441-N16}
Atmos refraction: NO (AIRLESS)
RA format       : HMS
Time format     : CAL 
Calendar mode   : Mixed Julian/Gregorian
RTS-only print  : NO       
EOP file        : eop.241205.p250303                                           
EOP coverage    : DATA-BASED 1962-JAN-20 TO 2024-DEC-05. PREDICTS-> 2025-MAR-02
Units conversion: 1 au= 149597870.700 km, c= 299792.458 km/s, 1 day= 86400.0 s 
Table cut-offs 1: Elevation (-90.0deg=NO ),Airmass (>38.000=NO), Daylight (YES)
Table cut-offs 2: Solar elongation (  0.0,180.0=NO ),Local Hour Angle( 0.0=NO )
Table cut-offs 3: RA/DEC angular rate (     0.0=NO )                           
*******************************************************************************
Initial IAU76/J2000 heliocentric ecliptic osculating elements (au, days, deg.):
  EPOCH=  2458127.5 ! 2018-Jan-09.00 (TDB)         Residual RMS= .2787         
   EC= .08141730682229319  QR= 2.89613208739257    TP= 2458420.6685284483      
   OM= 329.1525583823792   W=  163.0619562799197   IN= 4.73619265468861        
  Equivalent ICRF heliocentric cartesian coordinates (au, au/d):
   X= 8.831945932166756E-01  Y= 2.532168596675914E+00  Z= 1.360803999508301E+00
  VX=-9.867256226021401E-03 VY= 2.254941400948641E-03 VZ= 7.028227572403328E-04
Asteroid physical parameters (km, seconds, rotational period in hours):        
   GM= n.a.                RAD= 5.187              ROTPER= 3.33                
   H= 13.88                G= .150                 B-V= n.a.                   
                           ALBEDO= .065            STYP= n.a.                  
*******************************************************************************
 Date__(UT)__HR:MN     R.A._________(ICRF)_________DEC
******************************************************
$$SOE
 2019-Jan-05 10:15     10 58 34.600236 +06 52 01.29547
 2019-Jan-05 10:16     10 58 34.601801 +06 52 01.22924
 2019-Jan-05 10:17     10 58 34.603361 +06 52 01.16302
 2019-Jan-05 10:18     10 58 34.604916 +06 52 01.09679
 2019-Jan-05 10:19     10 58 34.606466 +06 52 01.03056
 2019-Jan-05 10:20     10 58 34.608012 +06 52 00.96434
 2019-Jan-05 10:21     10 58 34.609552 +06 52 00.89811
 2019-Jan-05 10:22     10 58 34.611088 +06 52 00.83188
 2019-Jan-05 10:23     10 58 34.612620 +06 52 00.76565
 2019-Jan-05 10:24     10 58 34.614146 +06 52 00.69942
 2019-Jan-05 10:25     10 58 34.615668 +06 52 00.63320
 2019-Jan-05 10:26     10 58 34.617185 +06 52 00.56697
 2019-Jan-05 10:27     10 58 34.618697 +06 52 00.50074
 2019-Jan-05 10:28     10 58 34.620205 +06 52 00.43451
 2019-Jan-05 10:29     10 58 34.621708 +06 52 00.36827
 2019-Jan-05 10:30     10 58 34.623206 +06 52 00.30204
 2019-Jan-05 10:31     10 58 34.624700 +06 52 00.23581
 2019-Jan-05 10:32     10 58 34.626189 +06 52 00.16958
 2019-Jan-05 10:33     10 58 34.627673 +06 52 00.10334
 2019-Jan-05 10:34     10 58 34.629153 +06 52 00.03711
 2019-Jan-05 10:35     10 58 34.630628 +06 51 59.97087
 2019-Jan-05 10:36     10 58 34.632098 +06 51 59.90464
 2019-Jan-05 10:37     10 58 34.633564 +06 51 59.83840
 2019-Jan-05 10:38     10 58 34.635025 +06 51 59.77216
 2019-Jan-05 10:39     10 58 34.636482 +06 51 59.70592
 2019-Jan-05 10:40     10 58 34.637934 +06 51 59.63968
 2019-Jan-05 10:41     10 58 34.639382 +06 51 59.57344
 2019-Jan-05 10:42     10 58 34.640825 +06 51 59.50720
 2019-Jan-05 10:43     10 58 34.642263 +06 51 59.44096
 2019-Jan-05 10:44     10 58 34.643697 +06 51 59.37471
 2019-Jan-05 10:45     10 58 34.645127 +06 51 59.30847
 2019-Jan-05 10:46     10 58 34.646552 +06 51 59.24222
 2019-Jan-05 10:47     10 58 34.647972 +06 51 59.17598
 2019-Jan-05 10:48     10 58 34.649388 +06 51 59.10973
 2019-Jan-05 10:49     10 58 34.650800 +06 51 59.04348
 2019-Jan-05 10:50     10 58 34.652207 +06 51 58.97723
 2019-Jan-05 10:51     10 58 34.653610 +06 51 58.91098
 2019-Jan-05 10:52     10 58 34.655008 +06 51 58.84472
 2019-Jan-05 10:53     10 58 34.656402 +06 51 58.77847
 2019-Jan-05 10:54     10 58 34.657791 +06 51 58.71221
 2019-Jan-05 10:55     10 58 34.659176 +06 51 58.64596
 2019-Jan-05 10:56     10 58 34.660557 +06 51 58.57970
 2019-Jan-05 10:57     10 58 34.661933 +06 51 58.51344
 2019-Jan-05 10:58     10 58 34.663305 +06 51 58.44718
 2019-Jan-05 10:59     10 58 34.664673 +06 51 58.38092
 2019-Jan-05 11:00     10 58 34.666037 +06 51 58.31465
 2019-Jan-05 11:01     10 58 34.667396 +06 51 58.24839
 2019-Jan-05 11:02     10 58 34.668750 +06 51 58.18212
 2019-Jan-05 11:03     10 58 34.670101 +06 51 58.11585
 2019-Jan-05 11:04     10 58 34.671447 +06 51 58.04958
 2019-Jan-05 11:05     10 58 34.672789 +06 51 57.98331
 2019-Jan-05 11:06     10 58 34.674127 +06 51 57.91704
 2019-Jan-05 11:07     10 58 34.675460 +06 51 57.85076
 2019-Jan-05 11:08     10 58 34.676789 +06 51 57.78448
 2019-Jan-05 11:09     10 58 34.678115 +06 51 57.71820
 2019-Jan-05 11:10     10 58 34.679435 +06 51 57.65192
 2019-Jan-05 11:11     10 58 34.680752 +06 51 57.58564
 2019-Jan-05 11:12     10 58 34.682065 +06 51 57.51936
 2019-Jan-05 11:13     10 58 34.683373 +06 51 57.45307
 2019-Jan-05 11:14     10 58 34.684677 +06 51 57.38678
 2019-Jan-05 11:15     10 58 34.685978 +06 51 57.32049
 2019-Jan-05 11:16     10 58 34.687274 +06 51 57.25420
 2019-Jan-05 11:17     10 58 34.688566 +06 51 57.18791
 2019-Jan-05 11:18     10 58 34.689853 +06 51 57.12161
 2019-Jan-05 11:19     10 58 34.691137 +06 51 57.05532
 2019-Jan-05 11:20     10 58 34.692417 +06 51 56.98902
 2019-Jan-05 11:21     10 58 34.693693 +06 51 56.92271
 2019-Jan-05 11:22     10 58 34.694964 +06 51 56.85641
 2019-Jan-05 11:23     10 58 34.696232 +06 51 56.79010
 2019-Jan-05 11:24     10 58 34.697496 +06 51 56.72380
 2019-Jan-05 11:25     10 58 34.698756 +06 51 56.65749
 2019-Jan-05 11:26     10 58 34.700011 +06 51 56.59117
 2019-Jan-05 11:27     10 58 34.701263 +06 51 56.52486
 2019-Jan-05 11:28     10 58 34.702511 +06 51 56.45854
 2019-Jan-05 11:29     10 58 34.703755 +06 51 56.39222
 2019-Jan-05 11:30     10 58 34.704995 +06 51 56.32590
 2019-Jan-05 11:31     10 58 34.706231 +06 51 56.25958
 2019-Jan-05 11:32     10 58 34.707464 +06 51 56.19325
 2019-Jan-05 11:33     10 58 34.708692 +06 51 56.12693
 2019-Jan-05 11:34     10 58 34.709917 +06 51 56.06059
 2019-Jan-05 11:35     10 58 34.711138 +06 51 55.99426
 2019-Jan-05 11:36     10 58 34.712355 +06 51 55.92793
 2019-Jan-05 11:37     10 58 34.713568 +06 51 55.86159
 2019-Jan-05 11:38     10 58 34.714777 +06 51 55.79525
 2019-Jan-05 11:39     10 58 34.715983 +06 51 55.72891
 2019-Jan-05 11:40     10 58 34.717185 +06 51 55.66256
 2019-Jan-05 11:41     10 58 34.718383 +06 51 55.59621
 2019-Jan-05 11:42     10 58 34.719577 +06 51 55.52986
 2019-Jan-05 11:43     10 58 34.720768 +06 51 55.46351
 2019-Jan-05 11:44     10 58 34.721955 +06 51 55.39715
 2019-Jan-05 11:45     10 58 34.723139 +06 51 55.33079
 2019-Jan-05 11:46     10 58 34.724318 +06 51 55.26443
 2019-Jan-05 11:47     10 58 34.725494 +06 51 55.19807
 2019-Jan-05 11:48     10 58 34.726667 +06 51 55.13170
 2019-Jan-05 11:49     10 58 34.727836 +06 51 55.06533
 2019-Jan-05 11:50     10 58 34.729001 +06 51 54.99896
 2019-Jan-05 11:51     10 58 34.730163 +06 51 54.93259
 2019-Jan-05 11:52     10 58 34.731321 +06 51 54.86621
 2019-Jan-05 11:53     10 58 34.732475 +06 51 54.79983
 2019-Jan-05 11:54     10 58 34.733626 +06 51 54.73345
 2019-Jan-05 11:55     10 58 34.734774 +06 51 54.66706
 2019-Jan-05 11:56     10 58 34.735918 +06 51 54.60067
 2019-Jan-05 11:57     10 58 34.737059 +06 51 54.53428
 2019-Jan-05 11:58     10 58 34.738196 +06 51 54.46789
 2019-Jan-05 11:59     10 58 34.739329 +06 51 54.40149
 2019-Jan-05 12:00     10 58 34.740460 +06 51 54.33509
 2019-Jan-05 12:01     10 58 34.741587 +06 51 54.26868
 2019-Jan-05 12:02     10 58 34.742710 +06 51 54.20228
 2019-Jan-05 12:03     10 58 34.743830 +06 51 54.13587
 2019-Jan-05 12:04     10 58 34.744947 +06 51 54.06946
 2019-Jan-05 12:05     10 58 34.746060 +06 51 54.00304
 2019-Jan-05 12:06     10 58 34.747170 +06 51 53.93662
 2019-Jan-05 12:07     10 58 34.748277 +06 51 53.87020
 2019-Jan-05 12:08     10 58 34.749380 +06 51 53.80377
 2019-Jan-05 12:09     10 58 34.750480 +06 51 53.73735
 2019-Jan-05 12:10     10 58 34.751577 +06 51 53.67092
 2019-Jan-05 12:11     10 58 34.752671 +06 51 53.60448
 2019-Jan-05 12:12     10 58 34.753761 +06 51 53.53804
 2019-Jan-05 12:13     10 58 34.754848 +06 51 53.47160
 2019-Jan-05 12:14     10 58 34.755932 +06 51 53.40516
 2019-Jan-05 12:15     10 58 34.757013 +06 51 53.33871
 2019-Jan-05 12:16     10 58 34.758091 +06 51 53.27226
 2019-Jan-05 12:17     10 58 34.759166 +06 51 53.20581
